IRIDIUM 63              
1 25286U 98021B   25105.97598337  .00000844  00000+0  28130-3 0  9999
2 25286  86.3931 108.2379 0002452  91.0422 269.1056 14.36480300414913
IRIDIUM 69              
1 25319U 98026A   25105.97080327  .00000937  00000+0  28637-3 0  9991
2 25319  86.3938 121.7205 0001631 158.7568 201.3700 14.40891418414101
IRIDIUM 71              
1 25320U 98026B   25105.63882168  .00000902  00000+0  27417-3 0  9996
2 25320  86.3930 116.5617 0000906  22.9550 337.1690 14.41087857414584
IRIDIUM 73              
1 25344U 98032C   25105.95576624  .00001527  00000+0  37637-3 0  9990
2 25344  86.4385  73.2434 0002172 102.7188 257.4260 14.51613222421534
IRIDIUM 82              
1 25467U 98051A   25105.59243794  .00028182  00000+0  88436-3 0  9995
2 25467  86.3671 140.4368 0092491 172.0079 188.2670 15.28714309414386
